[Satellite]
VERSION=1.1
NAME=CLUSTER II-FM7
NICKNAME=CLUSTER II-FM7
TLE1=1 26411U 00041B   17160.58502327  .00000320  00000-0  00000-0 0  9991
TLE2=2 26411 130.0024 334.2963 5107118 159.1649 359.9006  0.44225336 17542
